FENGYUN 1C DEB          
1 30304U 99025ZR  17345.90976647  .00000460  00000-0  30685-3 0  9998
2 30304  99.2088 343.7213 0088613 273.2223  85.8808 14.04475355557000
